OBJECT_NAME,OBJECT_ID,EPOCH,MEAN_MOTION,ECCENTRICITY,INCLINATION,RA_OF_ASC_NODE,ARG_OF_PERICENTER,MEAN_ANOMALY,EPHEMERIS_TYPE,CLASSIFICATION_TYPE,NORAD_CAT_ID,ELEMENT_SET_NO,REV_AT_EPOCH,BSTAR,MEAN_MOTION_DOT,MEAN_MOTION_DDOT
LEMUR-2-CELIJO-SB-PK,2025-276DW,2026-07-23T06:07:05.225376,15.00350636,.00065257,97.5182,273.8404,44.8181,315.3569,0,U,66781,999,2803,.50225784E-3,.6251E-4,0
LEMUR-2-FINNIAN,2025-276DX,2026-07-23T03:45:40.833504,15.00680472,.00069071,97.5351,274.0329,328.3462,31.7346,0,U,66782,999,2539,.43099557E-3,.5402E-4,0
LEMUR-2-STARLIGHT,2025-276DY,2026-07-23T03:27:21.811680,14.99428649,.00144375,97.5243,273.5555,23.0438,337.1430,0,U,66783,999,3558,.53583152E-3,.6524E-4,0
LEMUR-2-TARTIFLETTE,2025-276DZ,2026-07-23T03:25:11.820288,14.99409339,.00137297,97.5241,273.5617,32.0065,328.1990,0,U,66784,999,3558,.51868028E-3,.6309E-4,0
LEMUR-2-VUKASIN,2025-276EA,2026-07-23T04:09:24.516288,15.00600580,.00018166,97.5197,273.9619,23.3545,336.7761,0,U,66785,999,3554,.43062802E-3,.5384E-4,0
LEMUR-2-HOTSPUR-TOM,2025-276EB,2026-07-23T03:17:54.832416,14.99305596,.00134557,97.5217,273.5281,23.8988,336.2857,0,U,66786,999,3551,.53078591E-3,.6439E-4,0
LEMUR-2-MYRA,2025-276EC,2026-07-23T03:18:56.193696,15.00655988,.00184599,97.5228,273.8495,29.8071,330.4201,0,U,66787,999,3560,.50413363E-3,.6344E-4,0
LEMUR-2 FIKRETDENGIZ,2026-004A,2026-07-23T05:37:25.908096,14.88560956,.00095988,97.8036,202.2466,32.4337,327.7468,0,U,67363,999,2864,.40440968E-3,.3712E-4,0
TWILIGHT-1 OBJECT B,2026-004B,2026-07-20T23:43:51.115584,14.87805943,.00093149,97.8078,200.0319,28.9865,331.1867,0,U,67364,999,2831,.12739587E-3,.111E-4,0
LEMUR-2-MARIO-SOUSA,2026-004C,2026-07-23T00:16:26.138496,14.88774825,.00092357,97.8007,202.0217,35.0508,325.1315,0,U,67365,999,2862,.51518189E-3,.4769E-4,0
LEMUR-2-SONNENBLUME,2026-004E,2026-07-22T22:45:51.887808,14.88482895,.00089045,97.8005,201.9290,35.7911,324.3902,0,U,67367,999,2861,.26574293E-3,.2415E-4,0
LEMUR-2-WOBLER,2026-004F,2026-07-23T00:05:21.560928,14.88739084,.00088447,97.8057,202.1425,27.6179,332.5506,0,U,67368,999,2862,.45633589E-3,.4214E-4,0
LEMUR-2-GRAM-E-SUE,2026-004H,2026-07-23T06:22:04.076544,14.88617572,.0008118,97.7994,202.2579,38.5848,321.5948,0,U,67370,999,2866,.24104749E-3,.2193E-4,0
LEMUR-2-KATIE,2026-004AA,2026-07-22T22:40:20.649216,14.90299200,.00027726,97.8053,202.5193,14.1370,345.9925,0,U,67387,999,2863,.5090192E-3,.4891E-4,0
LEMUR-2-HCS-BAZUS,2026-004AB,2026-07-23T00:14:35.916288,14.90302841,.00022625,97.8041,202.5614,15.3076,344.8210,0,U,67388,999,2864,.41422454E-3,.397E-4,0
